<?xml version="1.0" encoding="UTF-8"?><q:quakeml xmlns="http://quakeml.org/xmlns/bed/1.2" xmlns:q="http://quakeml.org/xmlns/quakeml/1.2"><eventParameters publicID="smi:org.gfz-potsdam.de/geofon/EventParameters"><event publicID="smi:org.gfz-potsdam.de/geofon/usp2020fyjb"><description><text>South Atlantic Ocean</text><type>region name</type></description><creationInfo><agencyID>USP</agencyID><author>scevent@seisMaster</author><creationTime>2020-03-25T11:32:49.352223Z</creationTime></creationInfo><magnitude publicID="smi:org.gfz-potsdam.de/geofon/Origin/20200325113249.295508.5381029/netMag/MLv"><stationCount>6</stationCount><creationInfo><agencyID>USP</agencyID><author>scmag@seisMaster</author><creationTime>2020-03-25T11:33:43.192287Z</creationTime></creationInfo><mag><value>4.581047949</value><uncertainty>0.1589065617</uncertainty></mag><type>MLv</type><originID>smi:org.gfz-potsdam.de/geofon/Origin/20200325113249.295508.5381029</originID><methodID>smi:org.gfz-potsdam.de/geofon/trimmed_mean(25)</methodID></magnitude><magnitude publicID="smi:org.gfz-potsdam.de/geofon/Origin/20200325113249.295508.5381029/netMag/Mw(mB)"><stationCount>3</stationCount><creationInfo><agencyID>USP</agencyID><author>scmag@seisMaster</author><creationTime>2020-03-25T11:32:58.213252Z</creationTime></creationInfo><mag><value>4.601588612</value><uncertainty>0.4</uncertainty></mag><type>Mw(mB)</type><originID>smi:org.gfz-potsdam.de/geofon/Origin/20200325113249.295508.5381029</originID></magnitude><magnitude publicID="smi:org.gfz-potsdam.de/geofon/Origin/20200325113249.295508.5381029/netMag/mB"><stationCount>3</stationCount><creationInfo><agencyID>USP</agencyID><author>scmag@seisMaster</author><creationTime>2020-03-25T11:32:58.213164Z</creationTime></creationInfo><mag><value>5.216606625</value><uncertainty>0.1733196749</uncertainty></mag><type>mB</type><originID>smi:org.gfz-potsdam.de/geofon/Origin/20200325113249.295508.5381029</originID><methodID>smi:org.gfz-potsdam.de/geofon/mean</methodID></magnitude><magnitude publicID="smi:org.gfz-potsdam.de/geofon/Origin/20200325113249.295508.5381029/netMag/M"><stationCount>6</stationCount><creationInfo><agencyID>USP</agencyID><author>scmag@seisMaster</author><creationTime>2020-03-25T11:32:49.355057Z</creationTime></creationInfo><mag><value>4.587447593</value></mag><type>M</type><originID>smi:org.gfz-potsdam.de/geofon/Origin/20200325113249.295508.5381029</originID><methodID>smi:org.gfz-potsdam.de/geofon/weighted_average</methodID></magnitude><magnitude publicID="smi:org.gfz-potsdam.de/geofon/Origin/20200325113249.295508.5381029/netMag/mb"><stationCount>4</stationCount><creationInfo><agencyID>USP</agencyID><author>scmag@seisMaster</author><creationTime>2020-03-25T11:32:49.354958Z</creationTime></creationInfo><mag><value>4.597418678</value><uncertainty>0.2641463282</uncertainty></mag><type>mb</type><originID>smi:org.gfz-potsdam.de/geofon/Origin/20200325113249.295508.5381029</originID><methodID>smi:org.gfz-potsdam.de/geofon/trimmed_mean(25)</methodID></magnitude><origin publicID="smi:org.gfz-potsdam.de/geofon/Origin/20200325113249.295508.5381029"><arrival publicID="smi:org.gfz-potsdam.de/geofon/20200325.113217.79-ON.TIJ01..HHZ_Origin/20200325113249.295508.5381029"><azimuth>259.9387512</azimuth><distance>6.780045033</distance><timeResidual>-0.4602088928</timeResidual><pickID>smi:org.gfz-potsdam.de/geofon/20200325.113217.79-ON.TIJ01..HHZ</pickID><phase>P</phase><timeWeight>1</timeWeight></arrival><arrival publicID="smi:org.gfz-potsdam.de/geofon/20200325.113203.21-ON.RIB01..HHZ_Origin/20200325113249.295508.5381029"><azimuth>11.51319885</azimuth><distance>5.70498848</distance><timeResidual>0.1816444397</timeResidual><pickID>smi:org.gfz-potsdam.de/geofon/20200325.113203.21-ON.RIB01..HHZ</pickID><phase>P</phase><timeWeight>1</timeWeight></arrival><arrival publicID="smi:org.gfz-potsdam.de/geofon/20200325.113157.83-BL.VABB..HHZ_Origin/20200325113249.295508.5381029"><azimuth>290.1425781</azimuth><distance>5.261469841</distance><timeResidual>0.5123558044</timeResidual><pickID>smi:org.gfz-potsdam.de/geofon/20200325.113157.83-BL.VABB..HHZ</pickID><phase>P</phase><timeWeight>1</timeWeight></arrival><arrival publicID="smi:org.gfz-potsdam.de/geofon/20200325.113157.20-ON.PET01..HHZ_Origin/20200325113249.295508.5381029"><azimuth>275.6512146</azimuth><distance>5.197691917</distance><timeResidual>0.7198562622</timeResidual><pickID>smi:org.gfz-potsdam.de/geofon/20200325.113157.20-ON.PET01..HHZ</pickID><phase>P</phase><timeWeight>1</timeWeight></arrival><arrival publicID="smi:org.gfz-potsdam.de/geofon/20200325.113151.81-BL.BSCB..HHZ_Origin/20200325113249.295508.5381029"><azimuth>322.6801147</azimuth><distance>4.876365662</distance><timeResidual>-0.01306152344</timeResidual><pickID>smi:org.gfz-potsdam.de/geofon/20200325.113151.81-BL.BSCB..HHZ</pickID><phase>P</phase><timeWeight>1</timeWeight></arrival><arrival publicID="smi:org.gfz-potsdam.de/geofon/20200325.113144.69-ON.ALF01..HHZ_Origin/20200325113249.295508.5381029"><azimuth>10.80411148</azimuth><distance>4.367161751</distance><timeResidual>-0.02885055542</timeResidual><pickID>smi:org.gfz-potsdam.de/geofon/20200325.113144.69-ON.ALF01..HHZ</pickID><phase>P</phase><timeWeight>1</timeWeight></arrival><arrival publicID="smi:org.gfz-potsdam.de/geofon/20200325.113139.16-BL.PARB..HHZ_Origin/20200325113249.295508.5381029"><azimuth>292.2669983</azimuth><distance>3.993864059</distance><timeResidual>-0.7070121765</timeResidual><pickID>smi:org.gfz-potsdam.de/geofon/20200325.113139.16-BL.PARB..HHZ</pickID><phase>P</phase><timeWeight>1</timeWeight></arrival><arrival publicID="smi:org.gfz-potsdam.de/geofon/20200325.113124.65-ON.DUB01..HHZ_Origin/20200325113249.295508.5381029"><azimuth>345.7344666</azimuth><distance>2.916080475</distance><timeResidual>-0.2046890259</timeResidual><pickID>smi:org.gfz-potsdam.de/geofon/20200325.113124.65-ON.DUB01..HHZ</pickID><phase>P</phase><timeWeight>1</timeWeight></arrival><time><value>2020-03-25T11:30:38.578205Z</value><uncertainty>1.708366867</uncertainty></time><longitude><value>-41.59904861</value><uncertainty>11.9273613</uncertainty></longitude><latitude><value>-24.90910149</value><uncertainty>13.79402741</uncertainty></latitude><quality><associatedPhaseCount>8</associatedPhaseCount><usedPhaseCount>8</usedPhaseCount><associatedStationCount>8</associatedStationCount><usedStationCount>8</usedStationCount><standardError>0.4427548996</standardError><azimuthalGap>248.4255524</azimuthalGap><maximumDistance>6.780045033</maximumDistance><minimumDistance>2.916080475</minimumDistance><medianDistance>5.03702879</medianDistance></quality><evaluationMode>automatic</evaluationMode><creationInfo><agencyID>USP</agencyID><author>scautoloc@seisMaster</author><creationTime>2020-03-25T11:32:49.295634Z</creationTime></creationInfo><depth><value>10000</value><uncertainty>0</uncertainty></depth><methodID>smi:org.gfz-potsdam.de/geofon/LOCSAT</methodID><earthModelID>smi:org.gfz-potsdam.de/geofon/iasp91</earthModelID></origin><pick publicID="smi:org.gfz-potsdam.de/geofon/20200325.113217.79-ON.TIJ01..HHZ"><phaseHint>P</phaseHint><evaluationMode>automatic</evaluationMode><creationInfo><agencyID>USP</agencyID><author>regpick@seisMaster</author><creationTime>2020-03-25T11:32:20.169633Z</creationTime></creationInfo><time><value>2020-03-25T11:32:17.798394Z</value></time><waveformID networkCode="ON" stationCode="TIJ01" channelCode="HHZ"/><filterID>smi:org.gfz-potsdam.de/geofon/RMHP(10)&gt;&gt;ITAPER(30)&gt;&gt;BW(2,2,10)&gt;&gt;STALTA(0.5,10)</filterID><methodID>smi:org.gfz-potsdam.de/geofon/Trigger</methodID></pick><pick publicID="smi:org.gfz-potsdam.de/geofon/20200325.113203.21-ON.RIB01..HHZ"><phaseHint>P</phaseHint><evaluationMode>automatic</evaluationMode><creationInfo><agencyID>USP</agencyID><author>regpick@seisMaster</author><creationTime>2020-03-25T11:32:05.164768Z</creationTime></creationInfo><time><value>2020-03-25T11:32:03.218392Z</value></time><waveformID networkCode="ON" stationCode="RIB01" channelCode="HHZ"/><filterID>smi:org.gfz-potsdam.de/geofon/RMHP(10)&gt;&gt;ITAPER(30)&gt;&gt;BW(2,2,10)&gt;&gt;STALTA(0.5,10)</filterID><methodID>smi:org.gfz-potsdam.de/geofon/Trigger</methodID></pick><pick publicID="smi:org.gfz-potsdam.de/geofon/20200325.113157.83-BL.VABB..HHZ"><phaseHint>P</phaseHint><evaluationMode>automatic</evaluationMode><creationInfo><agencyID>USP</agencyID><author>regpick@seisMaster</author><creationTime>2020-03-25T11:32:02.187257Z</creationTime></creationInfo><time><value>2020-03-25T11:31:57.830001Z</value></time><waveformID networkCode="BL" stationCode="VABB" channelCode="HHZ"/><filterID>smi:org.gfz-potsdam.de/geofon/RMHP(10)&gt;&gt;ITAPER(30)&gt;&gt;BW(2,2,10)&gt;&gt;STALTA(0.5,10)</filterID><methodID>smi:org.gfz-potsdam.de/geofon/Trigger</methodID></pick><pick publicID="smi:org.gfz-potsdam.de/geofon/20200325.113157.20-ON.PET01..HHZ"><phaseHint>P</phaseHint><evaluationMode>automatic</evaluationMode><creationInfo><agencyID>USP</agencyID><author>regpick@seisMaster</author><creationTime>2020-03-25T11:32:00.267826Z</creationTime></creationInfo><time><value>2020-03-25T11:31:57.208394Z</value></time><waveformID networkCode="ON" stationCode="PET01" channelCode="HHZ"/><filterID>smi:org.gfz-potsdam.de/geofon/RMHP(10)&gt;&gt;ITAPER(30)&gt;&gt;BW(2,2,10)&gt;&gt;STALTA(0.5,10)</filterID><methodID>smi:org.gfz-potsdam.de/geofon/Trigger</methodID></pick><pick publicID="smi:org.gfz-potsdam.de/geofon/20200325.113151.81-BL.BSCB..HHZ"><phaseHint>P</phaseHint><evaluationMode>automatic</evaluationMode><creationInfo><agencyID>USP</agencyID><author>regpick@seisMaster</author><creationTime>2020-03-25T11:31:54.798407Z</creationTime></creationInfo><time><value>2020-03-25T11:31:51.810001Z</value></time><waveformID networkCode="BL" stationCode="BSCB" channelCode="HHZ"/><filterID>smi:org.gfz-potsdam.de/geofon/RMHP(10)&gt;&gt;ITAPER(30)&gt;&gt;BW(2,2,10)&gt;&gt;STALTA(0.5,10)</filterID><methodID>smi:org.gfz-potsdam.de/geofon/Trigger</methodID></pick><pick publicID="smi:org.gfz-potsdam.de/geofon/20200325.113144.69-ON.ALF01..HHZ"><phaseHint>P</phaseHint><evaluationMode>automatic</evaluationMode><creationInfo><agencyID>USP</agencyID><author>regpick@seisMaster</author><creationTime>2020-03-25T11:31:47.044831Z</creationTime></creationInfo><time><value>2020-03-25T11:31:44.698394Z</value></time><waveformID networkCode="ON" stationCode="ALF01" channelCode="HHZ"/><filterID>smi:org.gfz-potsdam.de/geofon/RMHP(10)&gt;&gt;ITAPER(30)&gt;&gt;BW(2,2,10)&gt;&gt;STALTA(0.5,10)</filterID><methodID>smi:org.gfz-potsdam.de/geofon/Trigger</methodID></pick><pick publicID="smi:org.gfz-potsdam.de/geofon/20200325.113139.16-BL.PARB..HHZ"><phaseHint>P</phaseHint><evaluationMode>automatic</evaluationMode><creationInfo><agencyID>USP</agencyID><author>regpick@seisMaster</author><creationTime>2020-03-25T11:31:44.539286Z</creationTime></creationInfo><time><value>2020-03-25T11:31:39.165Z</value></time><waveformID networkCode="BL" stationCode="PARB" channelCode="HHZ"/><filterID>smi:org.gfz-potsdam.de/geofon/RMHP(10)&gt;&gt;ITAPER(30)&gt;&gt;BW(2,2,10)&gt;&gt;STALTA(0.5,10)</filterID><methodID>smi:org.gfz-potsdam.de/geofon/Trigger</methodID></pick><pick publicID="smi:org.gfz-potsdam.de/geofon/20200325.113124.65-ON.DUB01..HHZ"><phaseHint>P</phaseHint><evaluationMode>automatic</evaluationMode><creationInfo><agencyID>USP</agencyID><author>regpick@seisMaster</author><creationTime>2020-03-25T11:32:18.354857Z</creationTime></creationInfo><time><value>2020-03-25T11:31:24.658394Z</value></time><waveformID networkCode="ON" stationCode="DUB01" channelCode="HHZ"/><filterID>smi:org.gfz-potsdam.de/geofon/RMHP(10)&gt;&gt;ITAPER(30)&gt;&gt;BW(2,2,10)&gt;&gt;STALTA(0.5,10)</filterID><methodID>smi:org.gfz-potsdam.de/geofon/Trigger</methodID></pick><magnitude publicID="smi:org.gfz-potsdam.de/geofon/Origin/20200325113256.921807.5381052/netMag/MLv"><stationCount>7</stationCount><creationInfo><agencyID>USP</agencyID><author>scmag@seisMaster</author><creationTime>2020-03-25T11:33:43.192734Z</creationTime></creationInfo><mag><value>4.586687709</value><uncertainty>0.1549886962</uncertainty></mag><type>MLv</type><originID>smi:org.gfz-potsdam.de/geofon/Origin/20200325113256.921807.5381052</originID><methodID>smi:org.gfz-potsdam.de/geofon/trimmed_mean(25)</methodID></magnitude><magnitude publicID="smi:org.gfz-potsdam.de/geofon/Origin/20200325113256.921807.5381052/netMag/Mw(mB)"><stationCount>3</stationCount><creationInfo><agencyID>USP</agencyID><author>scmag@seisMaster</author><creationTime>2020-03-25T11:32:58.213632Z</creationTime></creationInfo><mag><value>4.595697194</value><uncertainty>0.4</uncertainty></mag><type>Mw(mB)</type><originID>smi:org.gfz-potsdam.de/geofon/Origin/20200325113256.921807.5381052</originID></magnitude><magnitude publicID="smi:org.gfz-potsdam.de/geofon/Origin/20200325113256.921807.5381052/netMag/mB"><stationCount>3</stationCount><creationInfo><agencyID>USP</agencyID><author>scmag@seisMaster</author><creationTime>2020-03-25T11:32:58.213572Z</creationTime></creationInfo><mag><value>5.212074765</value><uncertainty>0.1753954445</uncertainty></mag><type>mB</type><originID>smi:org.gfz-potsdam.de/geofon/Origin/20200325113256.921807.5381052</originID><methodID>smi:org.gfz-potsdam.de/geofon/mean</methodID></magnitude><magnitude publicID="smi:org.gfz-potsdam.de/geofon/Origin/20200325113256.921807.5381052/netMag/M"><stationCount>7</stationCount><creationInfo><agencyID>USP</agencyID><author>scmag@seisMaster</author><creationTime>2020-03-25T11:32:56.992221Z</creationTime></creationInfo><mag><value>4.577073067</value></mag><type>M</type><originID>smi:org.gfz-potsdam.de/geofon/Origin/20200325113256.921807.5381052</originID><methodID>smi:org.gfz-potsdam.de/geofon/weighted_average</methodID></magnitude><magnitude publicID="smi:org.gfz-potsdam.de/geofon/Origin/20200325113256.921807.5381052/netMag/mb"><stationCount>5</stationCount><creationInfo><agencyID>USP</agencyID><author>scmag@seisMaster</author><creationTime>2020-03-25T11:32:56.991986Z</creationTime></creationInfo><mag><value>4.554118957</value><uncertainty>0.206217529</uncertainty></mag><type>mb</type><originID>smi:org.gfz-potsdam.de/geofon/Origin/20200325113256.921807.5381052</originID><methodID>smi:org.gfz-potsdam.de/geofon/trimmed_mean(25)</methodID></magnitude><origin publicID="smi:org.gfz-potsdam.de/geofon/Origin/20200325113256.921807.5381052"><arrival publicID="smi:org.gfz-potsdam.de/geofon/20200325.113223.76-ON.MAJ01..HHZ_Origin/20200325113256.921807.5381052"><azimuth>247.3101196</azimuth><distance>7.088989258</distance><timeResidual>0.4820022583</timeResidual><pickID>smi:org.gfz-potsdam.de/geofon/20200325.113223.76-ON.MAJ01..HHZ</pickID><phase>P</phase><timeWeight>1</timeWeight></arrival><arrival publicID="smi:org.gfz-potsdam.de/geofon/20200325.113217.79-ON.TIJ01..HHZ_Origin/20200325113256.921807.5381052"><azimuth>259.3674927</azimuth><distance>6.751665115</distance><timeResidual>-0.9025115967</timeResidual><pickID>smi:org.gfz-potsdam.de/geofon/20200325.113217.79-ON.TIJ01..HHZ</pickID><phase>P</phase><timeWeight>1</timeWeight></arrival><arrival publicID="smi:org.gfz-potsdam.de/geofon/20200325.113203.21-ON.RIB01..HHZ_Origin/20200325113256.921807.5381052"><azimuth>12.06165791</azimuth><distance>5.650837898</distance><timeResidual>0.08692932129</timeResidual><pickID>smi:org.gfz-potsdam.de/geofon/20200325.113203.21-ON.RIB01..HHZ</pickID><phase>P</phase><timeWeight>1</timeWeight></arrival><arrival publicID="smi:org.gfz-potsdam.de/geofon/20200325.113157.83-BL.VABB..HHZ_Origin/20200325113256.921807.5381052"><azimuth>289.6570129</azimuth><distance>5.201691628</distance><timeResidual>0.4980392456</timeResidual><pickID>smi:org.gfz-potsdam.de/geofon/20200325.113157.83-BL.VABB..HHZ</pickID><phase>P</phase><timeWeight>1</timeWeight></arrival><arrival publicID="smi:org.gfz-potsdam.de/geofon/20200325.113157.20-ON.PET01..HHZ_Origin/20200325113256.921807.5381052"><azimuth>275.010437</azimuth><distance>5.151451111</distance><timeResidual>0.521068573</timeResidual><pickID>smi:org.gfz-potsdam.de/geofon/20200325.113157.20-ON.PET01..HHZ</pickID><phase>P</phase><timeWeight>1</timeWeight></arrival><arrival publicID="smi:org.gfz-potsdam.de/geofon/20200325.113151.81-BL.BSCB..HHZ_Origin/20200325113256.921807.5381052"><azimuth>322.6221313</azimuth><distance>4.801109791</distance><timeResidual>0.1845283508</timeResidual><pickID>smi:org.gfz-potsdam.de/geofon/20200325.113151.81-BL.BSCB..HHZ</pickID><phase>P</phase><timeWeight>1</timeWeight></arrival><arrival publicID="smi:org.gfz-potsdam.de/geofon/20200325.113144.69-ON.ALF01..HHZ_Origin/20200325113256.921807.5381052"><azimuth>11.50894165</azimuth><distance>4.31243372</distance><timeResidual>-0.1151809692</timeResidual><pickID>smi:org.gfz-potsdam.de/geofon/20200325.113144.69-ON.ALF01..HHZ</pickID><phase>P</phase><timeWeight>1</timeWeight></arrival><arrival publicID="smi:org.gfz-potsdam.de/geofon/20200325.113139.16-BL.PARB..HHZ_Origin/20200325113256.921807.5381052"><azimuth>291.6506653</azimuth><distance>3.932465076</distance><timeResidual>-0.6988334656</timeResidual><pickID>smi:org.gfz-potsdam.de/geofon/20200325.113139.16-BL.PARB..HHZ</pickID><phase>P</phase><timeWeight>1</timeWeight></arrival><arrival publicID="smi:org.gfz-potsdam.de/geofon/20200325.113124.65-ON.DUB01..HHZ_Origin/20200325113256.921807.5381052"><azimuth>346.2270508</azimuth><distance>2.844403982</distance><timeResidual>-0.05595397949</timeResidual><pickID>smi:org.gfz-potsdam.de/geofon/20200325.113124.65-ON.DUB01..HHZ</pickID><phase>P</phase><timeWeight>1</timeWeight></arrival><time><value>2020-03-25T11:30:39.412575Z</value><uncertainty>1.240703584</uncertainty></time><longitude><value>-41.64368057</value><uncertainty>10.05451905</uncertainty></longitude><latitude><value>-24.84533501</value><uncertainty>9.731260631</uncertainty></latitude><quality><associatedPhaseCount>9</associatedPhaseCount><usedPhaseCount>9</usedPhaseCount><associatedStationCount>9</associatedStationCount><usedStationCount>9</usedStationCount><standardError>0.4845137359</standardError><azimuthalGap>235.2484617</azimuthalGap><maximumDistance>7.088989258</maximumDistance><minimumDistance>2.844403982</minimumDistance><medianDistance>5.151451111</medianDistance></quality><evaluationMode>automatic</evaluationMode><creationInfo><agencyID>USP</agencyID><author>scautoloc@seisMaster</author><creationTime>2020-03-25T11:32:56.921915Z</creationTime></creationInfo><depth><value>10000</value><uncertainty>0</uncertainty></depth><methodID>smi:org.gfz-potsdam.de/geofon/LOCSAT</methodID><earthModelID>smi:org.gfz-potsdam.de/geofon/iasp91</earthModelID></origin><pick publicID="smi:org.gfz-potsdam.de/geofon/20200325.113223.76-ON.MAJ01..HHZ"><phaseHint>P</phaseHint><evaluationMode>automatic</evaluationMode><creationInfo><agencyID>USP</agencyID><author>regpick@seisMaster</author><creationTime>2020-03-25T11:32:27.037619Z</creationTime></creationInfo><time><value>2020-03-25T11:32:23.768394Z</value></time><waveformID networkCode="ON" stationCode="MAJ01" channelCode="HHZ"/><filterID>smi:org.gfz-potsdam.de/geofon/RMHP(10)&gt;&gt;ITAPER(30)&gt;&gt;BW(2,2,10)&gt;&gt;STALTA(0.5,10)</filterID><methodID>smi:org.gfz-potsdam.de/geofon/Trigger</methodID></pick><magnitude publicID="smi:org.gfz-potsdam.de/geofon/Origin/20200325113309.52251.5381112/netMag/MLv"><stationCount>9</stationCount><creationInfo><agencyID>USP</agencyID><author>scmag@seisMaster</author><creationTime>2020-03-25T11:33:43.193153Z</creationTime></creationInfo><mag><value>4.656784616</value><uncertainty>0.1894468762</uncertainty></mag><type>MLv</type><originID>smi:org.gfz-potsdam.de/geofon/Origin/20200325113309.52251.5381112</originID><methodID>smi:org.gfz-potsdam.de/geofon/trimmed_mean(25)</methodID></magnitude><magnitude publicID="smi:org.gfz-potsdam.de/geofon/Origin/20200325113309.52251.5381112/netMag/M"><stationCount>9</stationCount><creationInfo><agencyID>USP</agencyID><author>scmag@seisMaster</author><creationTime>2020-03-25T11:33:09.605136Z</creationTime></creationInfo><mag><value>4.57615308